[{"OBJECT_NAME":"STARLINK-5722","OBJECT_ID":"2023-020AT","EPOCH":"2026-03-09T04:34:39.523872","MEAN_MOTION":15.02523464,"ECCENTRICITY":9.191e-5,"INCLINATION":43.0056,"RA_OF_ASC_NODE":354.4318,"ARG_OF_PERICENTER":293.2203,"MEAN_ANOMALY":66.8542,"EPHEMERIS_TYPE":0,"CLASSIFICATION_TYPE":"U","NORAD_CAT_ID":55610,"ELEMENT_SET_NO":999,"REV_AT_EPOCH":16899,"BSTAR":0.00010423699,"MEAN_MOTION_DOT":1.204e-5,"MEAN_MOTION_DDOT":0},{"OBJECT_NAME":"COSMOS 2251 DEB","OBJECT_ID":"1993-036BRU","EPOCH":"2026-02-21T14:09:45.153216","MEAN_MOTION":14.99001579,"ECCENTRICITY":0.0017259,"INCLINATION":74.0061,"RA_OF_ASC_NODE":146.9269,"ARG_OF_PERICENTER":277.3195,"MEAN_ANOMALY":147.2685,"EPHEMERIS_TYPE":0,"CLASSIFICATION_TYPE":"U","NORAD_CAT_ID":38062,"ELEMENT_SET_NO":999,"REV_AT_EPOCH":64090,"BSTAR":0.0019091,"MEAN_MOTION_DOT":0.00023247,"MEAN_MOTION_DDOT":0}]
